$$SOE
2460721.500000000, A.D. 2025-Feb-15 00:00:00.0000, 2.869542099411877E+08, -3.239104941563834E+08, -6.480809004681051E+06,
2460728.500000000, A.D. 2025-Feb-22 00:00:00.0000, 2.943677276512811E+08, -3.163828107938449E+08, -6.256206271891490E+06,
2460735.500000000, A.D. 2025-Mar-01 00:00:00.0000, 3.016042379369097E+08, -3.086649412745918E+08, -6.027841749104887E+06,
2460742.500000000, A.D. 2025-Mar-08 00:00:00.0000, 3.086586412384614E+08, -3.007607572445646E+08, -5.795838072966635E+06,
2460749.500000000, A.D. 2025-Mar-15 00:00:00.0000, 3.155259071343465E+08, -2.926742739205083E+08, -5.560321101994470E+06,
2460756.500000000, A.D. 2025-Mar-22 00:00:00.0000, 3.222010765234419E+08, -2.844096494872117E+08, -5.321419644825265E+06,
2460763.500000000, A.D. 2025-Mar-29 00:00:00.0000, 3.286792652542363E+08, -2.759711866129045E+08, -5.079265493518606E+06,
2460770.500000000, A.D. 2025-Apr-05 00:00:00.0000, 3.349556695227074E+08, -2.673633329368276E+08, -4.833993535454556E+06,
2460777.500000000, A.D. 2025-Apr-12 00:00:00.0000, 3.410255711097872E+08, -2.585906804185625E+08, -4.585741758787170E+06,
2460784.500000000, A.D. 2025-Apr-19 00:00:00.0000, 3.468843422670887E+08, -2.496579644240206E+08, -4.334651206428662E+06,
2460791.500000000, A.D. 2025-Apr-26 00:00:00.0000, 3.525274505177980E+08, -2.405700627443952E+08, -4.080865920186579E+06,
2460798.500000000, A.D. 2025-May-03 00:00:00.0000, 3.579504634812943E+08, -2.313319945221776E+08, -3.824532883989871E+06,
2460805.500000000, A.D. 2025-May-10 00:00:00.0000, 3.631490537445291E+08, -2.219489190691167E+08, -3.565801968152434E+06,
2460812.500000000, A.D. 2025-May-17 00:00:00.0000, 3.681190038104984E+08, -2.124261346109067E+08, -3.304825881433666E+06,
2460819.500000000, A.D. 2025-May-24 00:00:00.0000, 3.728562112902968E+08, -2.027690770064105E+08, -3.041760151372224E+06,
2460826.500000000, A.D. 2025-May-31 00:00:00.0000, 3.773566947492894E+08, -1.929833181230871E+08, -2.776763145794958E+06,
2460833.500000000, A.D. 2025-Jun-07 00:00:00.0000, 3.816165998011246E+08, -1.830745626577547E+08, -2.509995999978319E+06,
2460840.500000000, A.D. 2025-Jun-14 00:00:00.0000, 3.856322030794020E+08, -1.730486440666119E+08, -2.241622286714107E+06,
2460847.500000000, A.D. 2025-Jun-21 00:00:00.0000, 3.893999152937124E+08, -1.629115228729972E+08, -1.971807808174148E+06,
2460854.500000000, A.D. 2025-Jun-28 00:00:00.0000, 3.929162864857075E+08, -1.526692855829851E+08, -1.700720652378149E+06,
2460861.500000000, A.D. 2025-Jul-05 00:00:00.0000, 3.961780119564993E+08, -1.423281420467979E+08, -1.428531198933773E+06,
2460868.500000000, A.D. 2025-Jul-12 00:00:00.0000, 3.991819376625208E+08, -1.318944220657928E+08, -1.155412030675523E+06,
2460875.500000000, A.D. 2025-Jul-19 00:00:00.0000, 4.019250652583298E+08, -1.213745718140544E+08, -8.815378156430051E+05,
2460882.500000000, A.D. 2025-Jul-26 00:00:00.0000, 4.044045569871064E+08, -1.107751501259152E+08, -6.070851831902266E+05,
2460889.500000000, A.D. 2025-Aug-02 00:00:00.0000, 4.066177404763291E+08, -1.001028246247173E+08, -3.322325981838033E+05,
2460896.500000000, A.D. 2025-Aug-09 00:00:00.0000, 4.085621134536943E+08, -8.936436770675550E+07, -5.716023627581820E+04,
2460903.500000000, A.D. 2025-Aug-16 00:00:00.0000, 4.102353484499081E+08, -7.856665244451015E+07, 2.179501277992651E+05,
2460910.500000000, A.D. 2025-Aug-23 00:00:00.0000, 4.116352977677482E+08, -6.771664839385180E+07, 4.929151934855655E+05,
2460917.500000000, A.D. 2025-Aug-30 00:00:00.0000, 4.127599990312173E+08, -5.682141659090530E+07, 7.675501974322535E+05,
2460924.500000000, A.D. 2025-Sep-06 00:00:00.0000, 4.136076798840007E+08, -4.588810273757795E+07, 1.041669178477282E+06,
2460931.500000000, A.D. 2025-Sep-13 00:00:00.0000, 4.141767601555547E+08, -3.492393106141094E+07, 1.315085395304188E+06,
2460938.500000000, A.D. 2025-Sep-20 00:00:00.0000, 4.144658547525110E+08, -2.393620049828908E+07, 1.587611462040473E+06,
2460945.500000000, A.D. 2025-Sep-27 00:00:00.0000, 4.144737783165556E+08, -1.293228008828689E+07, 1.859059358830405E+06,
2460952.500000000, A.D. 2025-Oct-04 00:00:00.0000, 4.141995496172500E+08, -1.919603047239901E+06, 2.129240546439062E+06,
2460959.500000000, A.D. 2025-Oct-11 00:00:00.0000, 4.136423952928238E+08, 9.094339539831255E+06, 2.397966142042645E+06,
2460966.500000000, A.D. 2025-Oct-18 00:00:00.0000, 4.128017532099064E+08, 2.010200512482474E+07, 2.665047107587809E+06,
2460973.500000000, A.D. 2025-Oct-25 00:00:00.0000, 4.116772755696092E+08, 3.109580620781607E+07, 2.930294438559566E+06,
2460980.500000000, A.D. 2025-Nov-01 00:00:00.0000, 4.102688317876920E+08, 4.206811696226851E+07, 3.193519350485228E+06,
2460987.500000000, A.D. 2025-Nov-08 00:00:00.0000, 4.085765111719151E+08, 5.301127993476601E+07, 3.454533457068816E+06,
2460994.500000000, A.D. 2025-Nov-15 00:00:00.0000, 4.066006255330176E+08, 6.391761275117843E+07, 3.713148921144541E+06,
2461001.500000000, A.D. 2025-Nov-22 00:00:00.0000, 4.043417121193556E+08, 7.477941503810272E+07, 3.969178558817670E+06,
2461008.500000000, A.D. 2025-Nov-29 00:00:00.0000, 4.018005367070262E+08, 8.558897668359089E+07, 4.222436002862670E+06,
2461015.500000000, A.D. 2025-Dec-06 00:00:00.0000, 3.989780945561317E+08, 9.633858729232937E+07, 4.472736122938305E+06,
2461022.500000000, A.D. 2025-Dec-13 00:00:00.0000, 3.958756096600357E+08, 1.070205434530921E+08, 4.719895387195669E+06,
2461029.500000000, A.D. 2025-Dec-20 00:00:00.0000, 3.924945357703273E+08, 1.176271548262060E+08, 4.963731927683696E+06,
2461036.500000000, A.D. 2025-Dec-27 00:00:00.0000, 3.888365581112798E+08, 1.281507516283999E+08, 5.204065619161151E+06,
2461043.500000000, A.D. 2026-Jan-03 00:00:00.0000, 3.849035943150887E+08, 1.385836928860122E+08, 5.440718254493415E+06,
2461050.500000000, A.D. 2026-Jan-10 00:00:00.0000, 3.806977946798921E+08, 1.489183747631921E+08, 5.673513750755027E+06,
2461057.500000000, A.D. 2026-Jan-17 00:00:00.0000, 3.762215419761051E+08, 1.591472388582983E+08, 5.902278356876694E+06,
2461064.500000000, A.D. 2026-Jan-24 00:00:00.0000, 3.714774508727663E+08, 1.692627804754481E+08, 6.126840857208528E+06,
2461071.500000000, A.D. 2026-Jan-31 00:00:00.0000, 3.664683670021144E+08, 1.792575568477829E+08, 6.347032767935790E+06,
2461078.500000000, A.D. 2026-Feb-07 00:00:00.0000, 3.611973657200571E+08, 1.891241952388985E+08, 6.562688515756890E+06,
2461085.500000000, A.D. 2026-Feb-14 00:00:00.0000, 3.556677508136258E+08, 1.988554008904795E+08, 6.773645574088350E+06,
2461092.500000000, A.D. 2026-Feb-21 00:00:00.0000, 3.498830535420825E+08, 2.084439653745873E+08, 6.979744567927450E+06,
2461099.500000000, A.D. 2026-Feb-28 00:00:00.0000, 3.438470309239080E+08, 2.178827764840458E+08, 7.180829540558472E+06,
2461106.500000000, A.D. 2026-Mar-07 00:00:00.0000, 3.375636612102333E+08, 2.271648276941842E+08, 7.376748411554143E+06,
2461113.500000000, A.D. 2026-Mar-14 00:00:00.0000, 3.310371393264639E+08, 2.362832248449697E+08, 7.567353180625007E+06,
2461120.500000000, A.D. 2026-Mar-21 00:00:00.0000, 3.242718740674866E+08, 2.452311929175279E+08, 7.752499949586481E+06,
2461127.500000000, A.D. 2026-Mar-28 00:00:00.0000, 3.172724850355293E+08, 2.540020839113234E+08, 7.932049030000299E+06,
2461134.500000000, A.D. 2026-Apr-04 00:00:00.0000, 3.100437987176281E+08, 2.625893848378720E+08, 8.105865112612173E+06,
2461141.500000000, A.D. 2026-Apr-11 00:00:00.0000, 3.025908439811673E+08, 2.709867254551502E+08, 8.273817444056407E+06,
2461148.500000000, A.D. 2026-Apr-18 00:00:00.0000, 2.949188471555002E+08, 2.791878857210416E+08, 8.435779995877519E+06,
2461155.500000000, A.D. 2026-Apr-25 00:00:00.0000, 2.870332267572201E+08, 2.871868029647172E+08, 8.591631623023480E+06,
2461162.500000000, A.D. 2026-May-02 00:00:00.0000, 2.789395879025207E+08, 2.949775787292278E+08, 8.741256206530318E+06,
2461169.500000000, A.D. 2026-May-09 00:00:00.0000, 2.706437165439151E+08, 3.025544852016646E+08, 8.884542763353109E+06,
2461176.500000000, A.D. 2026-May-16 00:00:00.0000, 2.621515739224073E+08, 3.099119713526453E+08, 9.021385499676406E+06,
2461183.500000000, A.D. 2026-May-23 00:00:00.0000, 2.534692913010668E+08, 3.170446697905405E+08, 9.151683885942578E+06,
2461190.500000000, A.D. 2026-May-30 00:00:00.0000, 2.446031629130989E+08, 3.239474046313026E+08, 9.275342969703838E+06,
2461197.500000000, A.D. 2026-Jun-06 00:00:00.0000, 2.355596368178114E+08, 3.306151970974478E+08, 9.392273687934279E+06,
2461204.500000000, A.D. 2026-Jun-13 00:00:00.0000, 2.263453073486955E+08, 3.370432690364746E+08, 9.502392858693123E+06,
2461211.500000000, A.D. 2026-Jun-20 00:00:00.0000, 2.169669086708458E+08, 3.432270472714794E+08, 9.605623136443779E+06,
2461218.500000000, A.D. 2026-Jun-27 00:00:00.0000, 2.074313077648537E+08, 3.491621684314423E+08, 9.701893058503047E+06,
2461225.500000000, A.D. 2026-Jul-04 00:00:00.0000, 1.977454968538355E+08, 3.548444834765814E+08, 9.791137118959412E+06,
2461232.500000000, A.D. 2026-Jul-11 00:00:00.0000, 1.879165855456213E+08, 3.602700617785725E+08, 9.873295835644230E+06,
2461239.500000000, A.D. 2026-Jul-18 00:00:00.0000, 1.779517928015079E+08, 3.654351947740813E+08, 9.948315803422704E+06,
2461246.500000000, A.D. 2026-Jul-25 00:00:00.0000, 1.678584387750226E+08, 3.703363991881079E+08, 1.001614973151290E+07,
2461253.500000000, A.D. 2026-Aug-01 00:00:00.0000, 1.576439365879626E+08, 3.749704197740146E+08, 1.007675645629480E+07,
2461260.500000000, A.D. 2026-Aug-08 00:00:00.0000, 1.473157842778416E+08, 3.793342315308926E+08, 1.013010090688965E+07,
2461267.500000000, A.D. 2026-Aug-15 00:00:00.0000, 1.368815573515679E+08, 3.834250418473793E+08, 1.017615402223781E+07,
2461274.500000000, A.D. 2026-Aug-22 00:00:00.0000, 1.263489012056433E+08, 3.872402937924840E+08, 1.021489278911319E+07,
2461281.500000000, A.D. 2026-Aug-29 00:00:00.0000, 1.157255211432487E+08, 3.907776691765661E+08, 1.024630049869207E+07,
2461288.500000000, A.D. 2026-Sep-05 00:00:00.0000, 1.050191721371844E+08, 3.940350885146856E+08, 1.027036679214478E+07,
$$EOE